NUSAT-1 (FRESCO)        
1 41557U 16033B   22120.57260920  .00018701  00000+0  57993-3 0  9995
2 41557  97.3856 218.2412 0011853 181.7930 286.9485 15.33392632330048
BEESAT-4                
1 41619U 16040W   22120.58185226  .00020558  00000+0  71526-3 0  9999
2 41619  97.2217 172.5242 0007894 285.9977  74.0394 15.29699135313407
CAS-2T & KS-1Q          
1 41847U 16066G   22120.42004808  .00000941  00000+0  15138-3 0  9990
2 41847  98.5544 185.1304 0363935 353.7359   5.9340 14.38519566287441
NAYIF-1 (EO-88)         
1 42017U 17008BX  22120.15811412  .00023838  00000+0  74904-3 0  9990
2 42017  97.2725 187.0196 0006255  72.5037 287.6889 15.32970312289675
ZHUHAI-1 02 (CAS-4B)    
1 42759U 17034B   22120.47545059  .00006153  00000+0  36925-3 0  9990
2 42759  43.0174 237.0808 0009377 339.3276 107.7108 15.11519569269098
ZHUHAI-1 01 (CAS-4A)    
1 42761U 17034D   22120.50821498  .00006637  00000+0  39621-3 0  9994
2 42761  43.0180 235.7232 0009395 340.6708  74.0624 15.11614088269102
MAX VALIER SAT          
1 42778U 17036P   22120.60444899  .00013542  00000+0  52599-3 0  9993
2 42778  97.2106 163.3639 0012841 131.3511 228.8835 15.26110278269609
RADFXSAT (FOX-1B)       
1 43017U 17073E   22120.61244953  .00007832  00000+0  59230-3 0  9995
2 43017  97.6807  16.7541 0249553 344.8813  14.5034 14.81045935240033
FOX-1D (AO-92)          
1 43137U 18004AC  22120.44921767  .00014863  00000+0  53969-3 0  9994
2 43137  97.3708 196.0677 0008665 163.3668 196.7858 15.28365702239016
DIWATA-2B               
1 43678U 18084H   22120.43485354  .00001021  00000+0  10619-3 0  9995
2 43678  97.9621 253.1628 0011316  84.5333 275.7162 14.92070771190692
ES'HAIL 2               
1 43700U 18090A   22120.21911939  .00000141  00000+0  00000+0 0  9998
2 43700   0.0110 213.6615 0002394 217.0310 252.1126  1.00273378 12546
FOX-1CLIFF (AO-95)      
1 43770U 18099N   22120.44213694  .00003895  00000+0  35003-3 0  9996
2 43770  97.6232 188.0397 0015375  78.8636 281.4313 14.96163590185838
ITASAT 1                
1 43786U 18099AE  22120.44066136  .00003212  00000+0  28812-3 0  9993
2 43786  97.6258 188.9298 0016001  71.7471 288.5490 14.96348499185879
JY1SAT (JO-97)          
1 43803U 18099AX  22120.47338916  .00005203  00000+0  45833-3 0  9998
2 43803  97.6229 188.7054 0016446  72.2338 288.0677 14.96785498185894
UWE-4                   
1 43880U 18111E   22120.30696460  .00004164  00000+0  35833-3 0  9995
2 43880  97.6734  27.4614 0013610 116.8015 243.4601 14.97848353182494
NEXUS (FO-99)           
1 43937U 19003F   22120.55973112  .00018291  00000+0  63820-3 0  9991
2 43937  97.1352 155.8019 0019575 329.1299  30.8789 15.29472506182654
PSAT2 (NO-104)          
1 44354U 19036R   22120.40207478  .00071527 -48707-5  71290-3 0  9994
2 44354  28.5243 149.8781 0252314 151.6508 209.8074 15.33423601157288
JAISAT-1                
1 44419U 19038F   22120.41513254  .00012564  00000+0  64530-3 0  9993
2 44419  97.6321  90.1916 0017629 301.4054  58.5454 15.16504490155771
DUCHIFAT-3              
1 44854U 19089C   22120.43932816  .00005709  00000+0  44785-3 0  9996
2 44854  36.9666  24.9149 0007539 204.0068 324.9175 15.00704314130714
CAS-6 (TO-108)          
1 44881U 19093C   22120.49625775  .00000813  00000+0  10982-3 0  9993
2 44881  97.8935 200.3935 0014731 348.1083  11.9784 14.81662158127678
RS-44 & BREEZE-KM R/B   
1 44909U 19096E   22120.42231144 -.00000005  00000+0 -73235-4 0  9999
2 44909  82.5195 262.1814 0218301  72.1759 290.3025 12.79713269109365
ORBITAL FACTORY 2 (OF-2)
1 45113U 19071C   22120.22066054  .00035896  00000+0  80730-3 0  9995
2 45113  51.6392 296.2613 0009199 354.8884   5.2007 15.42932928125927
HUSKYSAT-1 (HO-107)     
1 45119U 19071J   22120.52597805  .00031618  00000+0  72750-3 0  9998
2 45119  51.6389 294.5291 0009030 353.3339   6.7525 15.42315740125967
BY70-2                  
1 45857U 20042B   22120.47456811  .00009094  00000+0  12338-2 0  9990
2 45857  97.9556 197.7978 0008772 266.0438  93.9840 14.79077497 98367
SALSAT                  
1 46495U 20068K   22120.40656794  .00002961  00000+0  21666-3 0  9993
2 46495  97.7261  61.7117 0018391  81.1700 279.1607 15.04253278 86962
BY70-3                  
1 46839U 20079N   22120.52070898  .00030767  00000+0  77509-3 0  9997
2 46839  97.2014 193.3099 0007141 141.6184 326.9083 15.39817385 82862
RADFXSAT-2 (AO-109)     
1 47311U 21002C   22120.40608131  .00011428  00000+0  47166-3 0  9993
2 47311  60.6855 183.0051 0011422 269.4722  90.5057 15.24442074 71139
UVSQ-SAT                
1 47438U 21006AB  22120.60570839  .00009563  00000+0  51326-3 0  9992
2 47438  97.4412 180.6085 0013673  84.2337 276.0454 15.15067459 70031
DIY-1 (ARDUIQUBE)       
1 47963U 21022AH  22120.52167999  .00026077  00000+0  15182-2 0  9991
2 47963  97.5371  22.4830 0015246 302.9666  57.0098 15.11905738 59702
XW-3 (CAS-9)            
1 50466U 21131B   22120.52528890  .00000390  00000+0  14222-3 0  9990
2 50466  98.5813 197.8000 0003255 295.4566  64.6284 14.38475406 18027
